ONEWEB-0349             
1 49281U 21090C   25364.13860425  .00000015  00000+0  61522-5 0  9991
2 49281  87.9218 308.1575 0001725  76.9231 283.2095 13.20772694207518
ONEWEB-0353             
1 49282U 21090D   25364.15310602 -.00000259  00000+0 -73224-3 0  9993
2 49282  87.9008 323.3824 0001940  73.1666 286.9677 13.14500908205370
ONEWEB-0356             
1 49283U 21090E   25364.13702580  .00000105  00000+0  22708-3 0  9991
2 49283  87.9221 308.1514 0002658  87.3240 272.8198 13.20772824207512
ONEWEB-0358             
1 49284U 21090F   25364.09126243  .00000057  00000+0  10813-3 0  9993
2 49284  87.9222 308.1617 0001834  82.7269 277.4073 13.20772324208231
ONEWEB-0359             
1 49285U 21090G   25364.08810078  .00000066  00000+0  13077-3 0  9994
2 49285  87.9219 308.1607 0001630  91.6037 268.5283 13.20771481208218
ONEWEB-0360             
1 49286U 21090H   25364.07864248 -.00000020  00000+0 -81331-4 0  9993
2 49286  87.9213 308.1702 0001683  81.0533 279.0791 13.20772188207520
ONEWEB-0361             
1 49287U 21090J   25364.13546463 -.00000032  00000+0 -11026-3 0  9993
2 49287  87.9219 308.1559 0001924  81.4963 278.6388 13.20771151207982
ONEWEB-0362             
1 49288U 21090K   25364.18160566  .00000047  00000+0  85962-4 0  9990
2 49288  87.9201 338.6114 0001566  80.2791 279.8519 13.19725755204621
